[{"OBJECT_NAME":"JILIN-1 GAOFEN 03D47","OBJECT_ID":"2022-167L","EPOCH":"2026-03-09T22:56:46.924224","MEAN_MOTION":15.31686941,"ECCENTRICITY":0.00089304,"INCLINATION":97.6835,"RA_OF_ASC_NODE":234.6581,"ARG_OF_PERICENTER":110.4031,"MEAN_ANOMALY":249.8169,"EPHEMERIS_TYPE":0,"CLASSIFICATION_TYPE":"U","NORAD_CAT_ID":54692,"ELEMENT_SET_NO":999,"REV_AT_EPOCH":18014,"BSTAR":0.00047294748,"MEAN_MOTION_DOT":0.00014417,"MEAN_MOTION_DDOT":0},{"OBJECT_NAME":"STARLINK-34824","OBJECT_ID":"2025-161AD","EPOCH":"2026-03-09T21:26:00.314880","MEAN_MOTION":15.30184122,"ECCENTRICITY":9.551e-5,"INCLINATION":53.1586,"RA_OF_ASC_NODE":293.0639,"ARG_OF_PERICENTER":62.7634,"MEAN_ANOMALY":297.3464,"EPHEMERIS_TYPE":0,"CLASSIFICATION_TYPE":"U","NORAD_CAT_ID":65042,"ELEMENT_SET_NO":999,"REV_AT_EPOCH":3426,"BSTAR":0.00026940354,"MEAN_MOTION_DOT":7.624e-5,"MEAN_MOTION_DDOT":0}]
